OBJECT_NAME,OBJECT_ID,EPOCH,MEAN_MOTION,ECCENTRICITY,INCLINATION,RA_OF_ASC_NODE,ARG_OF_PERICENTER,MEAN_ANOMALY,EPHEMERIS_TYPE,CLASSIFICATION_TYPE,NORAD_CAT_ID,ELEMENT_SET_NO,REV_AT_EPOCH,BSTAR,MEAN_MOTION_DOT,MEAN_MOTION_DDOT
STARLINK-35274,2025-235R,2026-06-04T06:36:44.870976,15.30230157,.0001148,53.1566,203.4064,91.1216,268.9916,0,U,66073,999,3617,.72830606E-3,.21293E-3,0
STARLINK-35321,2025-235S,2026-06-04T19:00:04.575168,15.30219289,.0001254,53.1580,200.9431,37.4603,322.6485,0,U,66074,999,3625,.55286E-3,.1606E-3,0
STARLINK-35131,2025-235T,2026-06-03T11:11:39.040512,15.30209442,.0001253,53.1583,206.8859,147.0658,213.0421,0,U,66075,999,3605,.58480752E-3,.17006E-3,0
STARLINK-34801,2025-235U,2026-06-05T07:23:23.226144,15.30190906,.00011416,53.1587,198.4717,90.7944,269.3187,0,U,66076,999,3633,.5433918E-3,.15764E-3,0
STARLINK-35129,2025-235V,2026-06-02T13:24:01.891008,15.30225399,.0001838,53.1581,211.1766,48.2190,311.8968,0,U,66077,999,3591,.80679E-3,.23631E-3,0
STARLINK-35116,2025-235W,2026-06-05T06:45:23.675328,15.30218575,.00012362,53.1568,198.3058,108.6035,251.5101,0,U,66078,999,3633,.49586567E-3,.14364E-3,0
STARLINK-35402,2025-235X,2026-06-05T06:36:16.460064,15.30226102,.00014548,53.1567,198.2645,140.9948,219.1158,0,U,66079,999,3633,.66866827E-3,.19513E-3,0
STARLINK-35325,2025-235Y,2026-06-05T05:20:27.179520,15.30247332,.00011436,53.1553,198.6510,82.1360,277.9771,0,U,66080,999,3632,.17374078E-2,.51531E-3,0
STARLINK-35403,2025-235Z,2026-06-03T11:03:04.328928,15.31705952,.00011114,53.1560,206.1353,139.8273,220.2811,0,U,66081,999,3606,.83912628E-3,.25769E-3,0
STARLINK-35011,2025-235AA,2026-06-03T14:31:12.453600,15.31705820,.00044956,53.1582,205.6177,1.5165,358.5849,0,U,66082,999,3608,.66002313E-3,.20179E-3,0
STARLINK-35291,2025-235AB,2026-06-03T07:09:00.380448,15.30190422,.00010933,53.1568,207.9631,98.5283,261.5842,0,U,66083,999,3599,.56561616E-3,.16425E-3,0
STARLINK-35379,2025-235AC,2026-06-03T17:49:08.644224,15.30201287,.00014139,53.1580,205.7610,50.1000,310.0125,0,U,66084,999,3609,.94729646E-3,.27803E-3,0
STARLINK-35370,2025-235AD,2026-06-03T06:59:53.449440,15.30218718,.00007363,53.1576,207.9251,66.2326,293.8752,0,U,66085,999,3599,.86515245E-3,.25367E-3,0
STARLINK-35596,2025-236A,2026-06-05T00:55:13.792512,15.30212299,.00018135,53.1596,58.4642,163.4036,196.7025,0,U,66086,999,3631,.87497138E-3,.25655E-3,0
STARLINK-35563,2025-236B,2026-06-05T00:08:07.824768,15.30212889,.00010274,53.1593,58.2567,66.5105,293.6003,0,U,66087,999,3625,.1427291E-2,.4217E-3,0
STARLINK-35461,2025-236C,2026-06-04T23:45:19.907136,15.30261659,.00011502,53.1616,58.1565,131.1829,228.9271,0,U,66088,999,3625,.65369874E-3,.19088E-3,0
STARLINK-35571,2025-236D,2026-06-04T23:58:59.917440,15.30211300,.00009969,53.1604,58.2184,233.4490,126.6420,0,U,66089,999,3631,.14061897E-2,.41536E-3,0
STARLINK-35570,2025-236E,2026-06-05T05:52:25.725216,15.30209044,.0001613,53.1608,56.9166,55.9062,304.2092,0,U,66090,999,3635,.3737426E-3,.10729E-3,0
STARLINK-35532,2025-236F,2026-06-05T01:01:09.137568,15.30222465,.00013467,53.1604,57.7745,104.8997,255.2153,0,U,66091,999,3632,.10476163E-2,.30819E-3,0
STARLINK-35527,2025-236G,2026-06-05T00:50:45.918816,15.34421311,.0003194,53.1592,57.7390,182.4150,177.6838,0,U,66092,999,3632,.12218412E-2,.41164E-3,0
STARLINK-35500,2025-236H,2026-06-05T00:03:33.900480,15.30182329,.00016275,53.1587,58.2423,18.2206,341.8853,0,U,66093,999,3631,.10071321E-2,.29572E-3,0
STARLINK-35528,2025-236J,2026-06-04T23:54:26.248896,15.30240091,.0000925,53.1617,58.2009,111.2134,248.8965,0,U,66094,999,3631,.31985412E-3,.9137E-4,0
STARLINK-35559,2025-236K,2026-06-04T23:49:52.941504,15.30224934,.00029119,53.1613,58.1771,163.4178,196.6918,0,U,66095,999,3631,.13246782E-2,.39113E-3,0
STARLINK-34386,2025-236L,2026-06-05T05:56:59.040384,15.30197178,.00017827,53.1620,56.9237,133.9376,226.1772,0,U,66096,999,3635,.88889946E-3,.26058E-3,0
STARLINK-35613,2025-236M,2026-06-05T04:35:06.957600,15.30180619,.0001047,53.1610,57.2803,92.2490,267.8630,0,U,66097,999,3634,.21231674E-3,.593E-4,0
STARLINK-34206,2025-236N,2026-06-05T00:59:51.955584,15.34416318,.00012646,53.1583,57.7782,125.0181,235.0941,0,U,66098,999,3631,.10900965E-2,.36654E-3,0
STARLINK-34460,2025-236P,2026-06-05T01:05:42.679968,15.30194839,.00011791,53.1606,57.7934,93.6632,266.4503,0,U,66099,999,3632,.18437515E-3,.5104E-4,0
STARLINK-35609,2025-236Q,2026-06-05T04:34:43.538016,15.34412198,.00011728,53.1612,57.2845,91.5457,268.5680,0,U,66100,999,3628,.67341153E-3,.22453E-3,0
STARLINK-35595,2025-236R,2026-06-05T00:19:03.750240,15.33568964,.00008336,53.1595,58.3048,113.9689,246.1401,0,U,66101,999,3625,.79027552E-3,.25723E-3,0
STARLINK-35599,2025-236S,2026-06-05T00:56:50.481888,15.34414406,.00011685,53.1589,57.7573,104.9341,255.1791,0,U,66102,999,3626,.1083977E-2,.36442E-3,0
