STARLINK-35274          
1 66073U 25235R   26155.27551934  .00021293  00000+0  72831-3 0  9994
2 66073  53.1566 203.4064 0001148  91.1216 268.9916 15.30230157 36178
STARLINK-35321          
1 66074U 25235S   26155.79171962  .00016060  00000+0  55286-3 0  9992
2 66074  53.1580 200.9431 0001254  37.4603 322.6485 15.30219289 36257
STARLINK-35131          
1 66075U 25235T   26154.46642408  .00017006  00000+0  58481-3 0  9995
2 66075  53.1583 206.8859 0001253 147.0658 213.0421 15.30209442 36058
STARLINK-34801          
1 66076U 25235U   26156.30790771  .00015764  00000+0  54339-3 0  9995
2 66076  53.1587 198.4717 0001141  90.7944 269.3187 15.30190906 36338
STARLINK-35129          
1 66077U 25235V   26153.55835522  .00023631  00000+0  80679-3 0  9992
2 66077  53.1581 211.1766 0001838  48.2190 311.8968 15.30225399 35912
STARLINK-35116          
1 66078U 25235W   26156.28152402  .00014364  00000+0  49587-3 0  9991
2 66078  53.1568 198.3058 0001236 108.6035 251.5101 15.30218575 36333
STARLINK-35402          
1 66079U 25235X   26156.27519051  .00019513  00000+0  66867-3 0  9999
2 66079  53.1567 198.2645 0001454 140.9948 219.1158 15.30226102 36335
STARLINK-35325          
1 66080U 25235Y   26156.22253680  .00051531  00000+0  17374-2 0  9993
2 66080  53.1553 198.6510 0001143  82.1360 277.9771 15.30247332 36327
STARLINK-35403          
1 66081U 25235Z   26154.46046677  .00025769  00000+0  83913-3 0  9991
2 66081  53.1560 206.1353 0001111 139.8273 220.2811 15.31705952 36069
STARLINK-35011          
1 66082U 25235AA  26154.60500525  .00020179  00000+0  66002-3 0  9995
2 66082  53.1582 205.6177 0004495   1.5165 358.5849 15.31705820 36087
STARLINK-35291          
1 66083U 25235AB  26154.29792107  .00016425  00000+0  56562-3 0  9999
2 66083  53.1568 207.9631 0001093  98.5283 261.5842 15.30190422 35990
STARLINK-35379          
1 66084U 25235AC  26154.74246116  .00027803  00000+0  94730-3 0  9995
2 66084  53.1580 205.7610 0001413  50.1000 310.0125 15.30201287 36093
STARLINK-35370          
1 66085U 25235AD  26154.29159085  .00025367  00000+0  86515-3 0  9999
2 66085  53.1576 207.9251 0000736  66.2326 293.8752 15.30218718 35999
STARLINK-35596          
1 66086U 25236A   26156.03835408  .00025655  00000+0  87497-3 0  9995
2 66086  53.1596  58.4642 0001813 163.4036 196.7025 15.30212299 36319
STARLINK-35563          
1 66087U 25236B   26156.00564612  .00042170  00000+0  14273-2 0  9991
2 66087  53.1593  58.2567 0001027  66.5105 293.6003 15.30212889 36259
STARLINK-35461          
1 66088U 25236C   26155.98981374  .00019088  00000+0  65370-3 0  9993
2 66088  53.1616  58.1565 0001150 131.1829 228.9271 15.30261659 36259
STARLINK-35571          
1 66089U 25236D   26155.99930460  .00041536  00000+0  14062-2 0  9999
2 66089  53.1604  58.2184 0000996 233.4490 126.6420 15.30211300 36317
STARLINK-35570          
1 66090U 25236E   26156.24474219  .00010729  00000+0  37374-3 0  9997
2 66090  53.1608  56.9166 0001613  55.9062 304.2092 15.30209044 36352
STARLINK-35532          
1 66091U 25236F   26156.04246687  .00030819  00000+0  10476-2 0  9997
2 66091  53.1604  57.7745 0001346 104.8997 255.2153 15.30222465 36327
STARLINK-35527          
1 66092U 25236G   26156.03525369  .00041164  00000+0  12218-2 0  9995
2 66092  53.1592  57.7390 0003194 182.4150 177.6838 15.34421311 36328
STARLINK-35500          
1 66093U 25236H   26156.00247570  .00029572  00000+0  10071-2 0  9992
2 66093  53.1587  58.2423 0001627  18.2206 341.8853 15.30182329 36313
STARLINK-35528          
1 66094U 25236J   26155.99613714  .00009137  00000+0  31985-3 0  9990
2 66094  53.1617  58.2009 0000925 111.2134 248.8965 15.30240091 36313
STARLINK-35559          
1 66095U 25236K   26155.99297386  .00039113  00000+0  13247-2 0  9991
2 66095  53.1613  58.1771 0002911 163.4178 196.6918 15.30224934 36315
STARLINK-34386          
1 66096U 25236L   26156.24790556  .00026058  00000+0  88890-3 0  9999
2 66096  53.1620  56.9237 0001782 133.9376 226.1772 15.30197178 36354
STARLINK-35613          
1 66097U 25236M   26156.19105275  .00005930  00000+0  21232-3 0  9995
2 66097  53.1610  57.2803 0001047  92.2490 267.8630 15.30180619 36341
STARLINK-34206          
1 66098U 25236N   26156.04157356  .00036654  00000+0  10901-2 0  9994
2 66098  53.1583  57.7782 0001264 125.0181 235.0941 15.34416318 36316
STARLINK-34460          
1 66099U 25236P   26156.04563287  .00005104  00000+0  18438-3 0  9999
2 66099  53.1606  57.7934 0001179  93.6632 266.4503 15.30194839 36328
STARLINK-35609          
1 66100U 25236Q   26156.19078169  .00022453  00000+0  67341-3 0  9991
2 66100  53.1612  57.2845 0001172  91.5457 268.5680 15.34412198 36288
STARLINK-35595          
1 66101U 25236R   26156.01323785  .00025723  00000+0  79028-3 0  9998
2 66101  53.1595  58.3048 0000833 113.9689 246.1401 15.33568964 36257
STARLINK-35599          
1 66102U 25236S   26156.03947317  .00036442  00000+0  10840-2 0  9990
2 66102  53.1589  57.7573 0001168 104.9341 255.1791 15.34414406 36269
